STARLINK-30595          
1 58111U 23161Q   26068.58512140 -.00000028  00000+0  11196-4 0  9999
2 58111  53.1608 166.1598 0001103  80.0909 280.0216 15.30182626134403
HERMES-3                
1 63835U 25052BR  26068.93751242  .00020316  00000+0  69958-3 0  9995
2 63835  97.3987 324.6131 0007993 112.9583 247.2502 15.30039785 54863
